{
  "norad_id": 42990,
  "name": "SKYSAT-C8",
  "history": [
    {
      "epoch": "2026-03-28T21:09:11.840256Z",
      "apogee_km": 460.96187326756535,
      "perigee_km": 459.3049603455738,
      "latitude_deg": -4.357526393433887e-05,
      "longitude_deg": 80.00440063014779,
      "height_km": 463.32093704406225,
      "semi_major_axis_km": 6838.270416806569,
      "eccentricity": 0.00012115,
      "inclination_deg": 97.4383,
      "raan_deg": 223.5992,
      "arg_perigee_deg": 95.4936,
      "mean_anomaly_deg": 264.6445,
      "mean_motion_rev_day": 15.35265023
    }
  ]
}